BRAC ONNESHA            
1 42823U 98067MX  18077.42960891  .00023646  00000-0  25288-3 0  9990
2 42823  51.6360 101.6586 0004000 201.8286 158.2539 15.63752982 39610
NIGERIAEDUSAT-1         
1 42824U 98067MY  18077.44411984  .00023006  00000-0  24752-3 0  9992
2 42824  51.6364 101.7657 0003965 202.1530 157.9294 15.63617599 39630
CORVUS BC2              
1 42846U 17042X   18077.32012304  .00000094  00000-0  14681-4 0  9993
2 42846  97.6046 343.4376 0010719 132.6509 227.5615 14.91774756 36820
CORVUS BC1              
1 42847U 17042Y   18077.16967328  .00000173  00000-0  22411-4 0  9999
2 42847  97.6046 343.3284 0010342 132.7582 227.4509 14.91873867 36792
SILU-1 (SILKROAD 1)     
1 42903U 17021F   18077.50049769  .00028115  00000-0  25274-3 0  9992
2 42903  42.7783 155.9259 0010119  16.2187 181.5748 15.67606755 35677
MIRATA                  
1 43015U 17073C   18077.37051413  .00001076  00000-0  91098-4 0  9993
2 43015  97.6994  12.2512 0258216 206.8929 151.8704 14.77881479 17721
ASTERIA                 
1 43020U 98067NH  18077.52729054  .00010564  00000-0  14918-3 0  9998
2 43020  51.6390 109.0913 0001909 174.9301 185.1711 15.57164241 18359
DELLINGR (RBLE)         
1 43021U 98067NJ  18077.56326236  .00008082  00000-0  11979-3 0  9994
2 43021  51.6385 109.3265 0001867 172.5882 187.5137 15.56221658 18351
TECHEDSAT 6             
1 43026U 98067NK  18077.54717787  .00127277  00000-0  10219-2 0  9995
2 43026  51.6334 103.9409 0003370  29.3214 330.7972 15.70076209 18321
OSIRIS-3U               
1 43027U 98067NL  18077.55886354  .00026252  00000-0  32854-3 0  9995
2 43027  51.6374 107.7962 0002225 143.4204 216.6942 15.59606852 18258
AEROCUBE 7B             
1 43042U 17071F   18077.38089084  .00004347  00000-0  12395-3 0  9993
2 43042  51.6383 123.7040 0005012 301.6550  58.3945 15.38205798 15622
AEROCUBE 7C             
1 43043U 17071G   18077.38021998  .00004309  00000-0  12292-3 0  9998
2 43043  51.6386 123.7014 0004982 301.7280  58.3218 15.38216333 15599
CHEFSAT                 
1 43044U 17071H   18077.55970387  .00005260  00000-0  14553-3 0  9992
2 43044  51.6385 122.6551 0005065 299.8648  60.1833 15.38689199 15623
ASGARDIA 1              
1 43049U 17071N   18077.36929041  .00003577  00000-0  10329-3 0  9993
2 43049  51.6387 123.6312 0002505 326.5467  33.5359 15.38370364 15593
ISARA                   
1 43050U 17071P   18077.55594733  .00005164  00000-0  14324-3 0  9995
2 43050  51.6383 122.6323 0002566 324.5953  35.4860 15.38649169 15621
FAUNA                   
1 43052U 17071R   18077.42954987  .00003758  00000-0  10769-3 0  9990
2 43052  51.6389 123.2879 0002417 323.5526  36.5293 15.38464581 15593
CORVUS BC3              
1 43118U 18004H   18077.35791240  .00001161  00000-0  53805-4 0  9998
2 43118  97.5442 139.7248 0012048  57.9134 302.3270 15.22073121  9895
MICROMAS-2A             
1 43131U 18004W   18077.47688982  .00002643  00000-0  11728-3 0  9997
2 43131  97.5445 139.8770 0011262  61.4117 298.8251 15.22431953  9914
GOMX4-B                 
1 43196U 18015E   18077.57115149  .00001557  00000-0  67899-4 0  9995
2 43196  97.3309 208.4623 0021119 114.9846 245.3573 15.23445511  6734
GOMX4-A                 
1 43197U 18015F   18077.60918981  .00001356  00000-0  59343-4 0  9997
2 43197  97.3306 208.4954 0021010 114.9117  78.1294 15.23545122  6742
